OBJECT_NAME,OBJECT_ID,EPOCH,MEAN_MOTION,ECCENTRICITY,INCLINATION,RA_OF_ASC_NODE,ARG_OF_PERICENTER,MEAN_ANOMALY,EPHEMERIS_TYPE,CLASSIFICATION_TYPE,NORAD_CAT_ID,ELEMENT_SET_NO,REV_AT_EPOCH,BSTAR,MEAN_MOTION_DOT,MEAN_MOTION_DDOT
FENGYUN 3D,2017-072A,2026-07-13T05:21:05.779584,14.19744155,.00016958,99.0134,169.1176,18.7273,341.3964,0,U,43010,999,44868,.3156689E-4,.21E-6,0
NOAA 20 (JPSS-1),2017-073A,2026-07-13T07:01:30.296064,14.19516236,.00013244,98.7773,133.5240,126.1419,233.9880,0,U,43013,999,44817,.27946787E-4,.15E-6,0
GOES 17,2018-022A,2026-07-13T06:51:42.401088,1.00271327,.00005314,1.0016,85.2872,84.0354,135.2753,0,U,43226,999,3068,0,-.186E-5,0
SENTINEL-3B,2018-039A,2026-07-13T04:59:20.825952,14.26735949,.00010933,98.6237,261.3653,119.4777,240.6513,0,U,43437,999,42783,.18273141E-4,.1E-7,0
FENGYUN 2H,2018-050A,2026-07-13T01:51:48.451968,1.00267338,.00023113,3.0943,78.7664,133.2490,186.0612,0,U,43491,999,2969,0,-.132E-5,0
METOP-C,2018-087A,2026-07-13T06:03:01.176480,14.21518723,.00022134,98.6631,253.3775,96.3455,263.7975,0,U,43689,999,39853,.43716028E-4,.52E-6,0
GEO-KOMPSAT-2A,2018-100A,2026-07-13T07:13:45.561792,1.00270636,.00019334,0.0265,111.7163,350.2814,65.8870,0,U,43823,999,2789,0,-.347E-5,0
METEOR-M2 2,2019-038A,2026-07-13T05:39:23.461344,14.24373354,.00008673,98.9154,181.9070,7.4382,352.6809,0,U,44387,999,36500,.14510078E-3,.29E-5,0
ARKTIKA-M 1,2021-016A,2026-07-07T10:17:34.884672,2.00614486,.72950864,63.2524,54.6812,270.0380,14.5466,0,U,47719,999,3919,0,-.257E-5,0
FENGYUN 3E,2021-062A,2026-07-13T06:35:11.656608,14.19907470,.00023283,98.7497,197.3918,43.0039,317.1319,0,U,49008,999,26028,.20557188E-3,.392E-5,0
GOES 18,2022-021A,2026-07-13T00:50:10.460256,1.00273053,.00006034,0.0164,127.5086,67.6267,331.3316,0,U,51850,999,685,0,.95E-6,0
NOAA 21 (JPSS-2),2022-150A,2026-07-13T06:06:33.539904,14.19540853,.00027888,98.7061,132.6060,108.1100,252.0380,0,U,54234,999,19024,.14231934E-4,-.14E-6,0
METEOSAT-12 (MTG-I1),2022-170C,2026-07-13T06:37:11.567712,1.00267241,.00037645,0.7231,19.3648,82.4320,288.3622,0,U,54743,999,1324,0,-.11E-6,0
TIANMU-1 03,2023-039A,2026-07-13T07:12:51.215328,15.48007852,.00027572,97.5233,9.3075,32.3778,327.7640,0,U,55973,999,18487,.17744699E-3,.918E-4,0
TIANMU-1 04,2023-039B,2026-07-13T06:42:53.100864,15.48631084,.00032023,97.5170,8.4417,20.1340,340.0036,0,U,55974,999,18488,.19047228E-3,.10079E-3,0
TIANMU-1 05,2023-039C,2026-07-13T06:47:00.135744,15.47931162,.00031412,97.5216,8.8940,50.4552,309.6975,0,U,55975,999,18485,.18360391E-3,.9477E-4,0
TIANMU-1 06,2023-039D,2026-07-13T06:50:10.047264,15.48528594,.0003248,97.5223,9.5586,42.3869,317.7632,0,U,55976,999,18488,.19120688E-3,.10082E-3,0
FENGYUN 3G,2023-055A,2026-07-13T06:58:21.573408,15.53729749,.00071097,49.9905,211.4057,47.2436,312.9128,0,U,56232,999,18406,.21305325E-3,.13481E-3,0
METEOR-M2 3,2023-091A,2026-07-13T07:21:03.144096,14.24048803,.00051471,98.6069,248.7483,94.5293,265.6474,0,U,57166,999,15823,.13281936E-4,-.13E-6,0
TIANMU-1 07,2023-101A,2026-07-13T07:50:50.591616,15.30101803,.00038498,97.2582,244.3974,68.7272,291.4380,0,U,57399,999,16564,.12576384E-3,.3589E-4,0
TIANMU-1 08,2023-101B,2026-07-13T07:02:42.384768,15.30105567,.00047873,97.2571,244.1316,51.5357,308.6313,0,U,57400,999,16563,.12755245E-3,.3642E-4,0
TIANMU-1 09,2023-101C,2026-07-13T06:37:57.332928,15.30146165,.00044761,97.2529,243.5173,69.1383,291.0337,0,U,57401,999,16563,.13455363E-3,.3851E-4,0
TIANMU-1 10,2023-101D,2026-07-13T05:52:02.277120,15.30120030,.00057943,97.2608,244.5633,59.7753,300.4061,0,U,57402,999,16562,.13767007E-3,.3939E-4,0
FENGYUN 3F,2023-111A,2026-07-13T07:52:36.134400,14.19943238,.00013108,98.6826,263.8485,77.1275,283.0048,0,U,57490,999,15257,.23683588E-4,.7E-7,0
ARKTIKA-M 2,2023-198A,2026-07-10T04:34:00.609312,2.00608615,.69090643,63.2187,151.7914,267.3543,18.7503,0,U,58584,999,1878,0,.186E-5,0
TIANMU-1 11,2023-205A,2026-07-13T07:53:33.670752,15.27252309,.00067557,97.3441,215.4788,270.5250,89.5215,0,U,58645,999,14151,.12041009E-3,.3143E-4,0
TIANMU-1 12,2023-205B,2026-07-13T07:13:31.145952,15.27083397,.00056802,97.3430,215.1991,242.9932,117.0728,0,U,58646,999,14149,.12183385E-3,.3164E-4,0
TIANMU-1 13,2023-205C,2026-07-13T08:01:39.737280,15.27076188,.00056147,97.3458,215.5113,220.0682,140.0144,0,U,58647,999,14149,.1237689E-3,.3215E-4,0
TIANMU-1 14,2023-205D,2026-07-13T07:39:15.909696,15.27119980,.00062586,97.3394,214.6574,228.0627,132.0080,0,U,58648,999,14149,.12332382E-3,.3208E-4,0
TIANMU-1 19,2023-208A,2026-07-13T06:52:54.924384,15.31957215,.00043941,97.4525,310.7291,205.6587,154.4438,0,U,58660,999,14132,.15641974E-3,.4747E-4,0
