FENGYUN 3D              
1 43010U 17072A   26194.22298356  .00000021  00000+0  31567-4 0  9992
2 43010  99.0134 169.1176 0001695  18.7273 341.3964 14.19744155448687
NOAA 20 (JPSS-1)        
1 43013U 17073A   26194.29271176  .00000015  00000+0  27947-4 0  9994
2 43013  98.7773 133.5240 0001324 126.1419 233.9880 14.19516236448171
GOES 17                 
1 43226U 18022A   26194.28590742 -.00000186  00000+0  00000+0 0  9993
2 43226   1.0016  85.2872 0000531  84.0354 135.2753  1.00271327 30688
SENTINEL-3B             
1 43437U 18039A   26194.20787993  .00000001  00000+0  18273-4 0  9994
2 43437  98.6237 261.3653 0001093 119.4777 240.6513 14.26735949427838
FENGYUN 2H              
1 43491U 18050A   26194.07764412 -.00000132  00000+0  00000+0 0  9993
2 43491   3.0943  78.7664 0002311 133.2490 186.0612  1.00267338 29699
METOP-C                 
1 43689U 18087A   26194.25209695  .00000052  00000+0  43716-4 0  9995
2 43689  98.6631 253.3775 0002213  96.3455 263.7975 14.21518723398538
GEO-KOMPSAT-2A          
1 43823U 18100A   26194.30122178 -.00000347  00000+0  00000+0 0  9999
2 43823   0.0265 111.7163 0001933 350.2814  65.8870  1.00270636 27899
METEOR-M2 2             
1 44387U 19038A   26194.23568821  .00000290  00000+0  14510-3 0  9998
2 44387  98.9154 181.9070 0000867   7.4382 352.6809 14.24373354365008
ARKTIKA-M 1             
1 47719U 21016A   26188.42887598 -.00000257  00000+0  00000+0 0  9997
2 47719  63.2524  54.6812 7295086 270.0380  14.5466  2.00614486 39194
FENGYUN 3E              
1 49008U 21062A   26194.27444047  .00000392  00000+0  20557-3 0  9991
2 49008  98.7497 197.3918 0002328  43.0039 317.1319 14.19907470260284
GOES 18                 
1 51850U 22021A   26194.03484329  .00000095  00000+0  00000+0 0  9993
2 51850   0.0164 127.5086 0000603  67.6267 331.3316  1.00273053  6854
NOAA 21 (JPSS-2)        
1 54234U 22150A   26194.25455486 -.00000014  00000+0  14232-4 0  9990
2 54234  98.7061 132.6060 0002788 108.1100 252.0380 14.19540853190241
METEOSAT-12 (MTG-I1)    
1 54743U 22170C   26194.27582833 -.00000011  00000+0  00000+0 0  9996
2 54743   0.7231  19.3648 0003764  82.4320 288.3622  1.00267241 13242
TIANMU-1 03             
1 55973U 23039A   26194.30059277  .00009180  00000+0  17745-3 0  9995
2 55973  97.5233   9.3075 0002757  32.3778 327.7640 15.48007852184872
TIANMU-1 04             
1 55974U 23039B   26194.27978126  .00010079  00000+0  19047-3 0  9991
2 55974  97.5170   8.4417 0003202  20.1340 340.0036 15.48631084184887
TIANMU-1 05             
1 55975U 23039C   26194.28264046  .00009477  00000+0  18360-3 0  9999
2 55975  97.5216   8.8940 0003141  50.4552 309.6975 15.47931162184856
TIANMU-1 06             
1 55976U 23039D   26194.28483851  .00010082  00000+0  19121-3 0  9997
2 55976  97.5223   9.5586 0003248  42.3869 317.7632 15.48528594184883
FENGYUN 3G              
1 56232U 23055A   26194.29052747  .00013481  00000+0  21305-3 0  9991
2 56232  49.9905 211.4057 0007109  47.2436 312.9128 15.53729749184066
METEOR-M2 3             
1 57166U 23091A   26194.30628639 -.00000013  00000+0  13282-4 0  9993
2 57166  98.6069 248.7483 0005147  94.5293 265.6474 14.24048803158237
TIANMU-1 07             
1 57399U 23101A   26194.32697444  .00003589  00000+0  12576-3 0  9999
2 57399  97.2582 244.3974 0003849  68.7272 291.4380 15.30101803165648
TIANMU-1 08             
1 57400U 23101B   26194.29354612  .00003642  00000+0  12755-3 0  9994
2 57400  97.2571 244.1316 0004787  51.5357 308.6313 15.30105567165630
TIANMU-1 09             
1 57401U 23101C   26194.27635802  .00003851  00000+0  13455-3 0  9996
2 57401  97.2529 243.5173 0004476  69.1383 291.0337 15.30146165165637
TIANMU-1 10             
1 57402U 23101D   26194.24447080  .00003939  00000+0  13767-3 0  9996
2 57402  97.2608 244.5633 0005794  59.7753 300.4061 15.30120030165629
FENGYUN 3F              
1 57490U 23111A   26194.32819600  .00000007  00000+0  23684-4 0  9997
2 57490  98.6826 263.8485 0001310  77.1275 283.0048 14.19943238152575
ARKTIKA-M 2             
1 58584U 23198A   26191.19028483  .00000186  00000+0  00000+0 0  9990
2 58584  63.2187 151.7914 6909064 267.3543  18.7503  2.00608615 18787
TIANMU-1 11             
1 58645U 23205A   26194.32886193  .00003143  00000+0  12041-3 0  9993
2 58645  97.3441 215.4788 0006755 270.5250  89.5215 15.27252309141515
TIANMU-1 12             
1 58646U 23205B   26194.30105493  .00003164  00000+0  12183-3 0  9999
2 58646  97.3430 215.1991 0005680 242.9932 117.0728 15.27083397141495
TIANMU-1 13             
1 58647U 23205C   26194.33448770  .00003215  00000+0  12377-3 0  9993
2 58647  97.3458 215.5113 0005614 220.0682 140.0144 15.27076188141490
TIANMU-1 14             
1 58648U 23205D   26194.31893414  .00003208  00000+0  12332-3 0  9994
2 58648  97.3394 214.6574 0006258 228.0627 132.0080 15.27119980141491
TIANMU-1 19             
1 58660U 23208A   26194.28674681  .00004747  00000+0  15642-3 0  9996
2 58660  97.4525 310.7291 0004394 205.6587 154.4438 15.31957215141324
